{
  "norad_id": 68770,
  "name": "STARLINK-37417",
  "history": [
    {
      "epoch": "2026-04-27T13:32:35.530368Z",
      "apogee_km": 291.14379060572173,
      "perigee_km": 285.6832190872019,
      "latitude_deg": 1.561976022635826e-05,
      "longitude_deg": 94.28555319925579,
      "height_km": 288.8856594817299,
      "semi_major_axis_km": 6666.550504846461,
      "eccentricity": 0.00040955,
      "inclination_deg": 97.2789,
      "raan_deg": 152.9859,
      "arg_perigee_deg": 355.7033,
      "mean_anomaly_deg": 4.4207,
      "mean_motion_rev_day": 15.94964428
    }
  ]
}