STARLINK-37417          
1 68770U 26086E   26117.56430012  .00092697  54523-5  24270-3 0  9993
2 68770  97.2789 152.9859 0004095 355.7033   4.4207 15.94964428  1184
